IRIDIUM 36 [-]          
1 24967U 97056C   23304.41657821  .00000900  00000+0  30023-3 0  9990
2 24967  86.3973  62.7006 0002241  96.2583 263.8870 14.36479694366809
IRIDIUM 39 [-]          
1 25042U 97069D   23304.88180815  .00001232  00000+0  32933-3 0  9995
2 25042  86.3874 105.6735 0020088 125.5281 234.7799 14.47452823363205
IRIDIUM 38 [-]          
1 25043U 97069E   23304.56652237  .00000725  00000+0  23851-3 0  9998
2 25043  86.3925 123.1483 0000128 194.1852 165.9341 14.36936974360530
IRIDIUM 42 [-]          
1 25077U 97077A   23304.55712881  .00000622  00000+0  21061-3 0  9992
2 25077  86.3934 128.5977 0001439  91.8180 268.3182 14.35248069355879
IRIDIUM 44 [-]          
1 25078U 97077B   23304.84843084  .00000800  00000+0  25276-3 0  9995
2 25078  86.3914 111.9939 0002773 132.7422 227.4010 14.39042665358224
IRIDIUM 45 [-]          
1 25104U 97082A   23304.80310845  .00012493  00000+0  79989-3 0  9992
2 25104  86.3743 329.3587 0177397 350.5316   9.2581 14.96274792362736
IRIDIUM 24 [-]          
1 25105U 97082B   23304.59316583  .00000767  00000+0  23336-3 0  9990
2 25105  86.3906 332.0965 0009681 233.9514 126.0789 14.40801762357568
IRIDIUM 51 [-]          
1 25262U 98018A   23304.82928708  .00013947  00000+0  77205-3 0  9996
2 25262  86.3922 339.8292 0161385 304.0187  54.5805 15.03178872357095
